[{"OBJECT_NAME":"STARLINK-31497","OBJECT_ID":"2024-150K","EPOCH":"2026-03-09T23:17:37.333536","MEAN_MOTION":15.3018508,"ECCENTRICITY":0.00010932,"INCLINATION":53.1616,"RA_OF_ASC_NODE":305.7751,"ARG_OF_PERICENTER":83.7907,"MEAN_ANOMALY":276.3219,"EPHEMERIS_TYPE":0,"CLASSIFICATION_TYPE":"U","NORAD_CAT_ID":60592,"ELEMENT_SET_NO":999,"REV_AT_EPOCH":8808,"BSTAR":2.3430195e-5,"MEAN_MOTION_DOT":3.35e-6,"MEAN_MOTION_DDOT":0},{"OBJECT_NAME":"OBJECT B","OBJECT_ID":"2025-313B","EPOCH":"2026-03-09T22:01:30.454176","MEAN_MOTION":14.73613198,"ECCENTRICITY":0.02934893,"INCLINATION":97.5206,"RA_OF_ASC_NODE":141.38,"ARG_OF_PERICENTER":298.1139,"MEAN_ANOMALY":59.0692,"EPHEMERIS_TYPE":0,"CLASSIFICATION_TYPE":"U","NORAD_CAT_ID":67249,"ELEMENT_SET_NO":999,"REV_AT_EPOCH":1051,"BSTAR":0.00024043091,"MEAN_MOTION_DOT":3.075e-5,"MEAN_MOTION_DDOT":0}]
